GLOBALSTAR M024         
1 25883U 99043A   24339.62939774 -.00000011  00000+0  19009-2 0  9992
2 25883  52.0003  99.6090 0002491 127.6239 330.0385 11.10161177 93254
GLOBALSTAR M027         
1 25884U 99043B   24338.98911300 -.00000019  00000+0  16757-2 0  9991
2 25884  52.0171 173.5090 0022068  38.6845 321.5524 11.04371403119672
GLOBALSTAR M054         
1 25885U 99043C   24339.23834472 -.00000036  00000+0  90289-3 0  9997
2 25885  52.0161 332.9691 0006002 204.5647 167.8708 11.39206671 96833
GLOBALSTAR M053         
1 25886U 99043D   24339.53086519 -.00000034  00000+0  10140-2 0  9997
2 25886  51.9988 268.5628 0003843  98.6440  72.2994 11.27660714 97483
GLOBALSTAR M058         
1 25907U 99049A   24339.54207253 -.00000112  00000+0 -37106-3 0  9998
2 25907  51.9947 268.9262 0001177 279.8520  80.2181 11.93192743518301
GLOBALSTAR M050         
1 25908U 99049B   24339.62108660  .00000035  00000+0  13905-2 0  9992
2 25908  51.9998 290.9268 0009604   6.4913 164.2874 12.07444601129413
GLOBALSTAR M033         
1 25909U 99049C   24339.56908661 -.00000123  00000+0 -30453-3 0  9993
2 25909  51.9878 176.3449 0011862 218.5249 141.4752 12.20292449511981
GLOBALSTAR M055         
1 25910U 99049D   24339.54144338 -.00000049  00000+0  39172-3 0  9999
2 25910  51.9990 196.6454 0008236  86.4575 273.7219 12.29416266144347
